{
  "type": "FeatureCollection",
  "features": [
    {
      "type": "Feature",
      "properties": {
        "name": "Western Ghats \u2014 Chikkamagaluru belt",
        "forest_type": "Reserved Forest"
      },
      "geometry": {
        "type": "Polygon",
        "coordinates": [
          [
            [
              75.5,
              13.0
            ],
            [
              76.1,
              13.0
            ],
            [
              76.1,
              13.6
            ],
            [
              75.5,
              13.6
            ],
            [
              75.5,
              13.0
            ]
          ]
        ]
      }
    },
    {
      "type": "Feature",
      "properties": {
        "name": "Similipal buffer \u2014 Odisha",
        "forest_type": "Reserved Forest"
      },
      "geometry": {
        "type": "Polygon",
        "coordinates": [
          [
            [
              86.2,
              21.5
            ],
            [
              86.9,
              21.5
            ],
            [
              86.9,
              22.1
            ],
            [
              86.2,
              22.1
            ],
            [
              86.2,
              21.5
            ]
          ]
        ]
      }
    }
  ]
}