{
  "type": "FeatureCollection",
  "features": [
    {
      "type": "Feature",
      "properties": {
        "class": "Agricultural"
      },
      "geometry": {
        "type": "Polygon",
        "coordinates": [
          [
            [
              74.0,
              29.5
            ],
            [
              76.9,
              29.5
            ],
            [
              76.9,
              32.5
            ],
            [
              74.0,
              32.5
            ],
            [
              74.0,
              29.5
            ]
          ]
        ]
      }
    },
    {
      "type": "Feature",
      "properties": {
        "class": "Industrial"
      },
      "geometry": {
        "type": "Polygon",
        "coordinates": [
          [
            [
              72.6,
              22.2
            ],
            [
              73.3,
              22.2
            ],
            [
              73.3,
              22.5
            ],
            [
              72.6,
              22.5
            ],
            [
              72.6,
              22.2
            ]
          ]
        ]
      }
    }
  ]
}