{
  "type": "FeatureCollection",
  "features": [
    {
      "type": "Feature",
      "properties": {
        "state": "Punjab",
        "district": null
      },
      "geometry": {
        "type": "Polygon",
        "coordinates": [
          [
            [
              74.0,
              29.5
            ],
            [
              76.9,
              29.5
            ],
            [
              76.9,
              32.5
            ],
            [
              74.0,
              32.5
            ],
            [
              74.0,
              29.5
            ]
          ]
        ]
      }
    },
    {
      "type": "Feature",
      "properties": {
        "state": "Odisha",
        "district": null
      },
      "geometry": {
        "type": "Polygon",
        "coordinates": [
          [
            [
              81.3,
              17.5
            ],
            [
              87.5,
              17.5
            ],
            [
              87.5,
              22.6
            ],
            [
              81.3,
              22.6
            ],
            [
              81.3,
              17.5
            ]
          ]
        ]
      }
    },
    {
      "type": "Feature",
      "properties": {
        "state": "Karnataka",
        "district": null
      },
      "geometry": {
        "type": "Polygon",
        "coordinates": [
          [
            [
              74.0,
              11.5
            ],
            [
              78.6,
              11.5
            ],
            [
              78.6,
              18.5
            ],
            [
              74.0,
              18.5
            ],
            [
              74.0,
              11.5
            ]
          ]
        ]
      }
    },
    {
      "type": "Feature",
      "properties": {
        "state": "Uttar Pradesh",
        "district": null
      },
      "geometry": {
        "type": "Polygon",
        "coordinates": [
          [
            [
              77.0,
              23.8
            ],
            [
              84.7,
              23.8
            ],
            [
              84.7,
              30.5
            ],
            [
              77.0,
              30.5
            ],
            [
              77.0,
              23.8
            ]
          ]
        ]
      }
    },
    {
      "type": "Feature",
      "properties": {
        "state": "Gujarat",
        "district": null
      },
      "geometry": {
        "type": "Polygon",
        "coordinates": [
          [
            [
              68.1,
              20.1
            ],
            [
              74.5,
              20.1
            ],
            [
              74.5,
              24.7
            ],
            [
              68.1,
              24.7
            ],
            [
              68.1,
              20.1
            ]
          ]
        ]
      }
    }
  ]
}